{"type": "FeatureCollection", "features": [{"type": "Feature", "properties": {"name": "Krishna", "osm_relation": 337204}, "geometry": {"type": "MultiLineString", "coordinates": [[[74.38601589039443, 17.047125470464838], [74.3861425, 17.0470916], [74.3887603, 17.0460658], [74.3902302, 17.0450914], [74.3910348, 17.0442502], [74.3916142, 17.0432655], [74.3917966, 17.042568], [74.3917751, 17.0419217], [74.3909812, 17.0400241], [74.3897903, 17.0380237], [74.388771, 17.0364953], [74.3880415, 17.0356849], [74.3869793, 17.034813], [74.3848336, 17.033582], [74.3828916, 17.0325152], [74.3821728, 17.0320433], [74.3814754, 17.0312637], [74.381175, 17.0306174], [74.3810785, 17.0299198], [74.3810248, 17.0293146], [74.3810463, 17.0287606], [74.381175, 17.0273655], [74.3816793, 17.0260985], [74.3822479, 17.025006], [74.3831706, 17.0238878], [74.3842327, 17.0229029], [74.3860621, 17.0214362], [74.3877304, 17.0203382], [74.3894782, 17.0194336], [74.3906271, 17.0189635], [74.3920541, 17.0186506], [74.3931431, 17.0186711], [74.3941355, 17.0189738], [74.395144, 17.0196919], [74.3959379, 17.0204921], [74.39641, 17.0213949], [74.3967318, 17.0223182], [74.3967479, 17.0227927], [74.3966836, 17.0234672], [74.396488, 17.0241285], [74.3960613, 17.0252829], [74.395737, 17.0264469], [74.395458, 17.0285602], [74.3956297, 17.0310222], [74.3961579, 17.0329614], [74.3968069, 17.034454], [74.3976545, 17.0358388], [74.3988883, 17.0372647], [74.4009697, 17.0393573], [74.4030726, 17.0408447], [74.4041991, 17.0414089], [74.4054144, 17.0416906], [74.4067418, 17.0418294], [74.4080186, 17.0417371], [74.4128036, 17.0414602], [74.4211292, 17.0413268], [74.4237363, 17.0411216], [74.424895, 17.040978], [74.4260645, 17.0406806], [74.4276094, 17.039942], [74.4282049, 17.0393829], [74.4307423, 17.0371005], [74.432255, 17.0359209], [74.4332957, 17.035408], [74.434256, 17.0351464], [74.4355649, 17.0350592], [74.4373298, 17.0351925], [74.4395614, 17.0357875], [74.4416428, 17.0363876], [74.4431233, 17.0365261], [74.4443464, 17.0366082], [74.4454569, 17.0365876], [74.4465619, 17.0363774], [74.4476992, 17.0359619], [74.4497752, 17.034813], [74.4521999, 17.0333358], [74.4540882, 17.0319612], [74.454689, 17.0314996], [74.4552013, 17.0309097], [74.4555312, 17.0302327], [74.4559765, 17.0294171], [74.4568455, 17.0279604], [74.457618, 17.0266166], [74.4583905, 17.0254574], [74.4592861, 17.0245646], [74.4600159, 17.0241032], [74.4607991, 17.0237544], [74.4624728, 17.0230876], [74.4633579, 17.0226465], [74.4645703, 17.0218463], [74.4659865, 17.0206665], [74.468143, 17.018625], [74.4691193, 17.0174965], [74.4695485, 17.0168707], [74.4699347, 17.0160192], [74.4703209, 17.0147983], [74.4704926, 17.013639], [74.4704497, 17.012136], [74.4705248, 17.0098636], [74.4706964, 17.0077091], [74.4710827, 17.0037899], [74.4712865, 17.0015019], [74.4713294, 16.9993473], [74.4712222, 16.997521], [74.4708788, 16.9961051], [74.4703102, 16.994802], [74.4695592, 16.9936939], [74.4681215, 16.9924216], [74.4670915, 16.9918676], [74.4654178, 16.9914982], [74.4636476, 16.9917649], [74.4620275, 16.9924216], [74.4589162, 16.9946789], [74.4563734, 16.9969875], [74.4553542, 16.9977159], [74.4540667, 16.9982289], [74.4528866, 16.9982495], [74.4520819, 16.9979622], [74.4513845, 16.9973568], [74.4505048, 16.9961872], [74.4496679, 16.9944634], [74.4490135, 16.9921754], [74.4487023, 16.9902361], [74.4484341, 16.987948], [74.4485199, 16.9858548], [74.4486594, 16.984603], [74.4491315, 16.9806833], [74.4497645, 16.9778409], [74.4501722, 16.9768046], [74.4516849, 16.9739929], [74.4535518, 16.9712069], [74.4542384, 16.9701756], [74.4569421, 16.9664096], [74.4589727, 16.9637154], [74.4610327, 16.9614003], [74.462564, 16.9600471], [74.4632935, 16.9596263], [74.4640982, 16.9593595], [74.4650745, 16.9592364], [74.468776, 16.9591851], [74.4698703, 16.9590106], [74.47119, 16.958477], [74.4724989, 16.9574507], [74.4735825, 16.9559627], [74.4763398, 16.9513753], [74.47914, 16.9463568], [74.4802451, 16.9444068], [74.4815862, 16.9417179], [74.4825411, 16.9403426], [74.4832271, 16.9397058], [74.4840777, 16.9389161], [74.4854378, 16.9379923], [74.487133, 16.9374586], [74.4920897, 16.9369044], [74.4952225, 16.936658], [74.4970864, 16.9366159], [74.4988596, 16.9365759], [74.5001256, 16.9363912], [74.5022285, 16.9356933], [74.5025077, 16.9355773], [74.5067912, 16.9337967], [74.5084083, 16.9329016], [74.510197, 16.9316275], [74.5112407, 16.9304793], [74.5122063, 16.9292066], [74.5129359, 16.9277388], [74.5135474, 16.925491], [74.5140624, 16.924054], [74.5148894, 16.9224022], [74.5186543, 16.916212], [74.520843, 16.9122909], [74.5231604, 16.9075485], [74.5243168, 16.9056882], [74.5250916, 16.9050643], [74.5270971, 16.9041196], [74.5296192, 16.9031961], [74.5325696, 16.9022722], [74.5334387, 16.901841], [74.5346296, 16.9009582], [74.5358205, 16.8995416], [74.5379703, 16.8962953], [74.539592, 16.8934653], [74.5408685, 16.891008], [74.5410457, 16.8905996], [74.542058, 16.8884511], [74.5424625, 16.8874759], [74.5428908, 16.8863499], [74.5439154, 16.8842351], [74.5444089, 16.8834189], [74.5450902, 16.8824436], [74.5474291, 16.8800566], [74.5496714, 16.8780957], [74.5509481, 16.8769971], [74.5518064, 16.8761905], [74.5525763, 16.8752625], [74.5539522, 16.873414], [74.5548534, 16.8717816], [74.5556903, 16.8700978], [74.5562374, 16.8682394], [74.5567024, 16.8653581], [74.5569348, 16.8631673], [74.5570528, 16.8608777], [74.5569885, 16.8565549], [74.5569134, 16.8547683], [74.5567363, 16.8539623], [74.5563877, 16.8530536], [74.555921, 16.8523322], [74.5552075, 16.8515955], [74.5548749, 16.8512977], [74.5543814, 16.8509563], [74.5539924, 16.8507432], [74.5535231, 16.8505533], [74.5525199, 16.850353], [74.5506504, 16.8502196], [74.5493817, 16.8501323], [74.5479172, 16.8500655], [74.5462972, 16.8502042], [74.5450902, 16.8504763], [74.5440817, 16.8508921], [74.5428157, 16.8516776], [74.5403704, 16.8535523], [74.5385483, 16.8552098], [74.5372742, 16.8562264], [74.5363998, 16.8567706], [74.5354932, 16.8570375], [74.5340985, 16.8571453], [74.5330578, 16.8569348], [74.5324141, 16.8565806], [74.5320493, 16.8560313], [74.5318454, 16.855215], [74.5318937, 16.8542652], [74.53206, 16.8527044], [74.5323497, 16.8512464], [74.5327306, 16.8498858], [74.5333099, 16.8483815], [74.533782, 16.8474369], [74.5346939, 16.8461225], [74.5364106, 16.8442536], [74.5409381, 16.8401051], [74.5420968, 16.838842], [74.5433414, 16.8372709], [74.546957, 16.832465], [74.5482123, 16.8309452], [74.5503044, 16.8290248], [74.5527506, 16.8268271], [74.5540702, 16.8255332], [74.5550895, 16.8242495], [74.5560765, 16.822822], [74.5568919, 16.8211378], [74.5576, 16.8191249], [74.5580721, 16.8177282], [74.5582867, 16.8163315], [74.5583081, 16.8148012], [74.5579755, 16.812511], [74.5578468, 16.8112683], [74.5579648, 16.8099537], [74.558351, 16.8088855], [74.5589197, 16.8078996], [74.5594615, 16.8073296], [74.5600891, 16.8068417], [74.5620739, 16.8058044], [74.5647454, 16.8048287], [74.5661724, 16.8044897], [74.5699274, 16.8035756], [74.573071, 16.8029799], [74.5759249, 16.8025178], [74.580431, 16.8020042], [74.5861173, 16.8018091], [74.593091, 16.8017372], [74.596256, 16.8015523], [74.5987236, 16.8011415], [74.6009874, 16.800556], [74.6048069, 16.7994365], [74.6068454, 16.7985532], [74.6093988, 16.7971769], [74.6156162, 16.7927551], [74.6168929, 16.7920464], [74.6181321, 16.7915071], [74.6211791, 16.7905108], [74.6250415, 16.7890625], [74.6268546, 16.7883435], [74.6281958, 16.7876143], [74.630202, 16.7861762], [74.6308565, 16.7856318], [74.6315753, 16.7845944], [74.6327448, 16.782273], [74.6339571, 16.780198], [74.6343112, 16.7796022], [74.6348691, 16.7790373], [74.6366876, 16.7777019], [74.6381628, 16.7764795], [74.6393323, 16.7753804], [74.640373, 16.7742915], [74.6420574, 16.771405], [74.6427494, 16.7697614], [74.6430713, 16.7684208], [74.6431678, 16.7675374], [74.6431625, 16.7664947], [74.643023, 16.7646867], [74.64279, 16.7606861], [74.6427119, 16.7589441], [74.6427333, 16.7564785], [74.6430337, 16.7552765], [74.6436667, 16.7540026], [74.6445143, 16.7530677], [74.6454048, 16.7523897], [74.6467674, 16.7517733], [74.6503615, 16.7507973], [74.6524215, 16.7504685], [74.6554792, 16.750109], [74.6604895, 16.7495336], [74.6628177, 16.7493795], [74.6648776, 16.7489275], [74.6689117, 16.7473042], [74.6722698, 16.7455371], [74.6756601, 16.743657], [74.6769047, 16.7430714], [74.6785784, 16.7425063], [74.688288, 16.7393522], [74.6919411, 16.7381706], [74.694618, 16.7373847], [74.6961415, 16.7367939], [74.6973216, 16.7360747], [74.698593, 16.7350986], [74.6991938, 16.7343383], [74.6996176, 16.7335112], [74.7000307, 16.7324683], [74.7002774, 16.7312148], [74.7002613, 16.7304031], [74.7000843, 16.7299048], [74.6996766, 16.7292164], [74.6979225, 16.7268481], [74.6959054, 16.7234676], [74.6929784, 16.7188075], [74.6909273, 16.7154323], [74.689554, 16.7138294], [74.6876282, 16.7122521], [74.6867322, 16.7117485], [74.6861422, 16.7116201], [74.6853053, 16.7117383], [74.6843398, 16.71199], [74.683224, 16.7123805], [74.6772695, 16.7143945], [74.6760356, 16.7147645], [74.6753114, 16.7149134], [74.6745819, 16.7149853], [74.6730959, 16.7149186], [74.6702635, 16.7146617], [74.6659049, 16.714451], [74.6590841, 16.7142404], [74.6531403, 16.7139629], [74.6490955, 16.7139013], [74.6455175, 16.7140554], [74.6425617, 16.7144664], [74.6402389, 16.7149648], [74.6364248, 16.7161003], [74.6320474, 16.7171227], [74.631409, 16.7171637], [74.6307438, 16.7170815], [74.6299285, 16.716799], [74.6289146, 16.7162338], [74.6283781, 16.7156892], [74.6276379, 16.7147028], [74.6271068, 16.7136598], [74.6265757, 16.7120106], [74.6258891, 16.7091077], [74.6254492, 16.7074584], [74.6247196, 16.7052285], [74.6243709, 16.7044732], [74.6238559, 16.7035946], [74.6232229, 16.7027879], [74.6224076, 16.7019812], [74.6199373, 16.700206], [74.6185076, 16.6994019], [74.617542, 16.6989908], [74.6164691, 16.6987853], [74.6139049, 16.698477], [74.6096134, 16.6980506], [74.6077681, 16.6977628], [74.605869, 16.6972233], [74.6047425, 16.6965039], [74.6040451, 16.6958154], [74.6034336, 16.6949625], [74.6026075, 16.6935032], [74.6018672, 16.691715], [74.6015507, 16.6905126], [74.6013951, 16.6893411], [74.601835, 16.6875529], [74.6022642, 16.6864122], [74.6028864, 16.6845931], [74.6043348, 16.6812427], [74.6053647, 16.6793311], [74.6062982, 16.6778101], [74.6076822, 16.6760937], [74.609313, 16.6745418], [74.6112335, 16.6731645], [74.6145594, 16.6708315], [74.6186151, 16.6683478], [74.6209645, 16.6658672], [74.6232927, 16.6628146], [74.629232, 16.6545771], [74.6311998, 16.6526593], [74.6330023, 16.6515389], [74.6367359, 16.649956], [74.6428084, 16.6489281], [74.6445787, 16.6485375], [74.6463811, 16.6480235], [74.6477975, 16.6472972], [74.6485698, 16.64679], [74.6493316, 16.646091], [74.6505159, 16.6440287], [74.6514666, 16.6420204], [74.6530115, 16.6390394], [74.6543097, 16.636747], [74.6552646, 16.6351331], [74.6559405, 16.6342798], [74.6564126, 16.6337489], [74.6569276, 16.6331696], [74.6587086, 16.6316482], [74.6596205, 16.6310982], [74.6609563, 16.6305842], [74.6623671, 16.6302912], [74.6653444, 16.6299211], [74.6666479, 16.6297053], [74.6680319, 16.6293146], [74.6692979, 16.6287595], [74.6707356, 16.6280194], [74.6723771, 16.6266623], [74.6736002, 16.6255726], [74.6760893, 16.6239997], [74.6792114, 16.6224371], [74.6849298, 16.6197025], [74.6873116, 16.6181604], [74.6883416, 16.6170501], [74.6891784, 16.615364], [74.6893823, 16.6138835], [74.6893716, 16.6124031], [74.689039, 16.6104702], [74.6881807, 16.6083112], [74.6873116, 16.6073756], [74.6860456, 16.6067073], [74.6843076, 16.6062344], [74.6827304, 16.6063166], [74.6810675, 16.6066045], [74.6801019, 16.6069746], [74.6792543, 16.6073653], [74.6769691, 16.6087327], [74.6758425, 16.6092879], [74.6747589, 16.6095861], [74.6739972, 16.6096477], [74.6726453, 16.6095861], [74.6715081, 16.6092468], [74.6701455, 16.6084654], [74.6682572, 16.6070157], [74.6656072, 16.6052884], [74.6636331, 16.6042809], [74.6628129, 16.6040419], [74.6613049, 16.6036537], [74.6600282, 16.6035612], [74.6587944, 16.6035509], [74.6578288, 16.6035818], [74.6569168, 16.6037257], [74.6555543, 16.6040547], [74.654181, 16.6045071], [74.6530008, 16.6050623], [74.6509945, 16.6062241], [74.6492135, 16.6075401], [74.6457803, 16.6100487], [74.6436131, 16.6109329], [74.6419716, 16.6111899], [74.6408236, 16.6110357], [74.6391499, 16.6105216], [74.6382809, 16.6100693], [74.6374226, 16.6094318], [74.6362317, 16.6079925], [74.6355343, 16.6071288], [74.6348905, 16.6059773], [74.6340966, 16.6040547], [74.6333671, 16.6009086], [74.6330774, 16.5983895], [74.6330023, 16.5954181], [74.63311847933507, 16.593211011107798]], [[74.8050792415121, 16.602438622693008], [74.8051035, 16.6030368], [74.805479, 16.6056586], [74.8057794, 16.6077046], [74.8060798, 16.612218], [74.806273, 16.6155902], [74.8067236, 16.6255007], [74.8072064, 16.6326145], [74.8074639, 16.6362433], [74.8076033, 16.6381861], [74.8080432, 16.6405093], [74.8083758, 16.6413934], [74.8086977, 16.6419793], [74.8091376, 16.6426269], [74.8098671, 16.6433773], [74.8106933, 16.6438553], [74.8121899, 16.644359], [74.8132628, 16.6444823], [74.8143518, 16.6444926], [74.8149902, 16.6443847], [74.8156553, 16.6441894], [74.8163259, 16.6439529], [74.8176026, 16.6432642], [74.8187453, 16.6424521], [74.8195875, 16.6417737], [74.8206599, 16.640766], [74.8207033, 16.6407252], [74.8221624, 16.6393477], [74.8231816, 16.6384431], [74.8246407, 16.6374974], [74.8262823, 16.6367573], [74.8279238, 16.6361405], [74.8295438, 16.6356471], [74.8329234, 16.6350097], [74.8357665, 16.6345677], [74.8390603, 16.6341256], [74.8408842, 16.6340845], [74.8419571, 16.6341873], [74.8431158, 16.6344238], [74.8459482, 16.6352256], [74.8487216, 16.6364797], [74.8520851, 16.6381039], [74.8541021, 16.6393066], [74.8568487, 16.6413009], [74.8587048, 16.6426886], [74.8599386, 16.6438399], [74.8629159, 16.6471549], [74.8657965, 16.6502746], [74.8678726, 16.6523561], [74.869734, 16.6538722], [74.8716009, 16.6551057], [74.8730171, 16.6559794], [74.8743796, 16.6565961], [74.8768258, 16.6573156], [74.8781133, 16.6575417], [74.879626, 16.657737], [74.8818684, 16.6577781], [74.8821495, 16.6577531], [74.8833704, 16.6576445], [74.885087, 16.6572848], [74.886927, 16.6567451], [74.8888957, 16.6560719], [74.8918676, 16.6549104], [74.8944855, 16.6536667], [74.8981762, 16.6516726], [74.8993671, 16.6509428], [74.9027896, 16.6483216], [74.9053591, 16.6460037], [74.9071079, 16.6441328], [74.909023, 16.6418662], [74.9096507, 16.6408434], [74.9105841, 16.6393991], [74.9118125, 16.6369731], [74.91223151084775, 16.635927688275217]], [[74.9476947383358, 16.63820371038532], [74.9478722, 16.6389263], [74.9484837, 16.6408691], [74.9493956, 16.6432128], [74.9508977, 16.6460602], [74.9527538, 16.649072], [74.9547064, 16.6519707], [74.9560261, 16.6537797], [74.957217, 16.6553832], [74.9587405, 16.6570895], [74.9604571, 16.6585799], [74.9622273, 16.6596694], [74.9639439, 16.6603992], [74.9694908, 16.6614887], [74.9750268, 16.6625371], [74.9771511, 16.6628557], [74.9793291, 16.6629379], [74.9814534, 16.6628557], [74.9834275, 16.662424], [74.9861848, 16.6613962], [74.9891889, 16.6597927], [74.991399, 16.6583126], [74.9938345, 16.6560616], [74.99446598554749, 16.655284247070078]]]}}]}