{"type": "FeatureCollection", "features": [{"type": "Feature", "properties": {"name": "Miraj", "name_mr": "मिरज", "lgd_subdistrict": "4302", "osm_relation": 9742028}, "geometry": {"type": "Polygon", "coordinates": [[[74.4020045, 16.8829264], [74.4023007, 16.8841319], [74.4027584, 16.8851687], [74.4037399, 16.8879066], [74.4027584, 16.8890368], [74.4029304, 16.8903684], [74.4034131, 16.8981453], [74.4034193, 16.9001374], [74.4035623, 16.9020068], [74.403005, 16.904346], [74.4022125, 16.9088383], [74.4048733, 16.9085389], [74.4073883, 16.9079971], [74.4105353, 16.9079092], [74.4139042, 16.9082967], [74.4203201, 16.908646], [74.4264297, 16.9092457], [74.4313549, 16.9103022], [74.4374773, 16.9100734], [74.4429603, 16.9102815], [74.4529343, 16.9096337], [74.4564081, 16.9098724], [74.462246, 16.9101506], [74.4620746, 16.913802], [74.4623861, 16.9195097], [74.4626024, 16.9237658], [74.4642601, 16.9265838], [74.4636633, 16.9319769], [74.4646123, 16.9345881], [74.4682859, 16.9369919], [74.4739753, 16.9387743], [74.4791371, 16.9387735], [74.4834381, 16.9381973], [74.4882488, 16.9380949], [74.4956731, 16.9375202], [74.4982051, 16.9369865], [74.5007801, 16.9365349], [74.5040416, 16.9352212], [74.5064878, 16.93362], [74.5077323, 16.9327989], [74.5098352, 16.9322652], [74.5102858, 16.93323], [74.5102644, 16.9345438], [74.5108008, 16.9357138], [74.5115089, 16.9366375], [74.5120024, 16.9374791], [74.5128178, 16.9385465], [74.5132684, 16.9394086], [74.5136976, 16.9406402], [74.5139551, 16.9417076], [74.514513, 16.9429803], [74.5150494, 16.9440066], [74.5158648, 16.9450944], [74.5173239, 16.9470239], [74.5186114, 16.9480912], [74.519813, 16.9489328], [74.5212722, 16.9491996], [74.5225382, 16.9491996], [74.52389, 16.9490765], [74.5246839, 16.9487686], [74.5260787, 16.9477423], [74.5267439, 16.9475781], [74.527688, 16.9477833], [74.5285678, 16.9483581], [74.5291257, 16.9493228], [74.5297265, 16.9501438], [74.530456, 16.9512316], [74.5306921, 16.9520937], [74.5306277, 16.9530584], [74.5301986, 16.9542489], [74.5300054, 16.9552751], [74.5300698, 16.9565066], [74.530456, 16.9574302], [74.531722, 16.9595443], [74.531765, 16.9610631], [74.5313358, 16.9624382], [74.5325374, 16.9643674], [74.5341682, 16.9658246], [74.5360565, 16.9665635], [74.5377302, 16.9664198], [74.5390391, 16.9659067], [74.5402837, 16.9655373], [74.541378, 16.9655784], [74.542644, 16.966153], [74.5440602, 16.966584], [74.5473647, 16.9679796], [74.5512485, 16.9705451], [74.5538878, 16.9724332], [74.5568061, 16.9742187], [74.5578146, 16.9749986], [74.5585012, 16.9759837], [74.5589733, 16.9771329], [74.5595312, 16.9761479], [74.5605182, 16.975368], [74.5625782, 16.974465], [74.5645952, 16.9747934], [74.5664835, 16.9747523], [74.5697021, 16.9758605], [74.5735645, 16.9761889], [74.5751094, 16.9760247], [74.5775985, 16.9765173], [74.5794868, 16.9774613], [74.5823621, 16.9779128], [74.5847654, 16.9777486], [74.5862674, 16.9765994], [74.5860099, 16.9746292], [74.586482, 16.9728642], [74.5877695, 16.9717149], [74.588499, 16.9706477], [74.5885419, 16.9575534], [74.5893144, 16.9559935], [74.5894861, 16.9533663], [74.5894861, 16.9522579], [74.589529, 16.9511085], [74.6017599, 16.9508622], [74.6038627, 16.9513138], [74.6069097, 16.9519706], [74.6099996, 16.9519295], [74.6132183, 16.9520116], [74.616394, 16.9520527], [74.6186256, 16.9520527], [74.6211147, 16.9520527], [74.6221447, 16.9528326], [74.6224021, 16.9546389], [74.6226167, 16.9563219], [74.6227455, 16.958046], [74.6240329, 16.9587028], [74.6266937, 16.9584154], [74.6294832, 16.9580049], [74.6312427, 16.958908], [74.632616, 16.9599753], [74.6347618, 16.9593596], [74.6366071, 16.9577586], [74.63871, 16.9552546], [74.639697, 16.9530789], [74.6402549, 16.950657], [74.6410703, 16.9485223], [74.6420574, 16.9463466], [74.6445894, 16.9381771], [74.6449327, 16.9369865], [74.6484088, 16.9369044], [74.6506834, 16.9371507], [74.6520996, 16.9367402], [74.6526575, 16.9345643], [74.653387, 16.9329632], [74.653902, 16.9311567], [74.6542024, 16.9302125], [74.6562194, 16.9322242], [74.6572494, 16.9334558], [74.658451, 16.9351391], [74.6599102, 16.9367812], [74.6617555, 16.9362886], [74.6623563, 16.9348106], [74.6621847, 16.9325937], [74.6617555, 16.9292682], [74.6619701, 16.9274617], [74.6620559, 16.9261069], [74.6622705, 16.9254089], [74.6640729, 16.9249984], [74.6773338, 16.9249163], [74.6812391, 16.9253679], [74.682312, 16.9288987], [74.6828699, 16.9315673], [74.6827411, 16.9337843], [74.6817541, 16.9368223], [74.681282, 16.9401066], [74.6805524, 16.9430213], [74.6799945, 16.9469623], [74.6788358, 16.9517243], [74.6784496, 16.9544336], [74.6773338, 16.9571839], [74.6770334, 16.9599753], [74.6766042, 16.9625203], [74.6766471, 16.9650653], [74.6771621, 16.9667893], [74.6790933, 16.9684312], [74.6888351, 16.9738083], [74.6915388, 16.9754911], [74.691925, 16.9782822], [74.6904659, 16.9868193], [74.6907234, 16.9906363], [74.6929979, 16.9929757], [74.6953582, 16.9931809], [74.6981048, 16.993222], [74.7016239, 16.994289], [74.7048854, 16.9953151], [74.7126102, 16.9977365], [74.7171163, 16.9984342], [74.7219228, 16.9985162], [74.7271585, 16.9981469], [74.7328233, 16.9978596], [74.7371578, 16.9983931], [74.7397756, 16.9993371], [74.7417926, 17.0002399], [74.7440671, 17.0008555], [74.7465992, 17.0008145], [74.7485303, 17.0007735], [74.7501611, 17.0008966], [74.749217, 16.9988446], [74.7475004, 16.9955203], [74.7475433, 16.9912519], [74.74617, 16.9907594], [74.7442817, 16.9913751], [74.7414064, 16.9915803], [74.7399473, 16.9919086], [74.7382736, 16.9921138], [74.736042, 16.9901438], [74.734497, 16.9886663], [74.7328233, 16.987394], [74.7316217, 16.9851366], [74.7329092, 16.9802523], [74.733982, 16.97898], [74.7374582, 16.9786927], [74.7403764, 16.9785285], [74.7437667, 16.9779949], [74.7489595, 16.977215], [74.7520494, 16.9764352], [74.7531223, 16.9752038], [74.7541523, 16.9734388], [74.7554826, 16.9712223], [74.7566843, 16.9693752], [74.7587871, 16.9671587], [74.7619199, 16.9652705], [74.762907, 16.961453], [74.7640657, 16.9598521], [74.7641086, 16.9583333], [74.7628212, 16.9574713], [74.7612333, 16.9568555], [74.7589159, 16.9559114], [74.7576713, 16.9545568], [74.7571992, 16.9526684], [74.7559976, 16.9479476], [74.7550106, 16.9447045], [74.7533369, 16.9418718], [74.7524356, 16.9387518], [74.7508907, 16.9363296], [74.749217, 16.9330042], [74.7480583, 16.9309104], [74.7472429, 16.9282829], [74.7480154, 16.9275439], [74.7533798, 16.9268459], [74.7541093, 16.9267227], [74.7558689, 16.9270922], [74.7577142, 16.927626], [74.7595596, 16.9279134], [74.7617912, 16.9277081], [74.763894, 16.9260658], [74.7656107, 16.9257784], [74.7680568, 16.9255732], [74.7704601, 16.925491], [74.7733354, 16.9259427], [74.7764253, 16.9273796], [74.7790432, 16.9274617], [74.7805023, 16.9266817], [74.7824335, 16.9265996], [74.7827768, 16.9279544], [74.7847938, 16.9275439], [74.7863388, 16.9264764], [74.7892999, 16.9250805], [74.7919607, 16.9238488], [74.7941494, 16.9227813], [74.7974538, 16.9226992], [74.7987413, 16.9254089], [74.8007154, 16.9252858], [74.8017454, 16.9244236], [74.8032474, 16.9238077], [74.804492, 16.9244236], [74.8050499, 16.9256142], [74.8062944, 16.9267227], [74.8075389, 16.9272975], [74.8083973, 16.9279544], [74.8099422, 16.929104], [74.8116588, 16.929104], [74.8116159, 16.9273386], [74.8114872, 16.9253268], [74.8117017, 16.9235203], [74.8123025, 16.9228224], [74.8132896, 16.9207695], [74.8132038, 16.9193735], [74.8135042, 16.9171975], [74.8141479, 16.9158015], [74.8171949, 16.9131737], [74.8190832, 16.9115313], [74.8214006, 16.9098479], [74.8266792, 16.9093552], [74.8285675, 16.9089035], [74.8291683, 16.9075485], [74.830842, 16.9061114], [74.8330307, 16.9052491], [74.8353481, 16.9053723], [74.8375368, 16.9062757], [74.8395538, 16.9070969], [74.8426866, 16.9068094], [74.8462915, 16.9065631], [74.8486518, 16.9069737], [74.8506259, 16.9074253], [74.8514843, 16.9063988], [74.8520422, 16.9044279], [74.8512268, 16.9005271], [74.8601532, 16.8990899], [74.8631572, 16.8980634], [74.8660326, 16.8972832], [74.8692083, 16.8968315], [74.871912, 16.8966262], [74.8737573, 16.8969547], [74.876461, 16.8979812], [74.8791647, 16.8997469], [74.8822116, 16.9007735], [74.885602, 16.9022517], [74.8907089, 16.9017179], [74.9006652, 16.9045101], [74.9313497, 16.905824], [74.955318, 16.905167], [74.959116, 16.9050028], [74.9601888, 16.9080412], [74.9620933, 16.9105649], [74.9631325, 16.9081351], [74.9630743, 16.9017928], [74.9628692, 16.8794189], [74.9383386, 16.8780808], [74.9356625, 16.8709448], [74.9030558, 16.8624086], [74.9098414, 16.8290936], [74.9115576, 16.7988744], [74.9120304, 16.7883016], [74.9222821, 16.771485], [74.85042, 16.7717688], [74.8453246, 16.7612065], [74.7999771, 16.7534839], [74.7744392, 16.7503809], [74.7404837, 16.7245157], [74.7391319, 16.7238992], [74.7372865, 16.7237142], [74.7338104, 16.7208372], [74.7323513, 16.7184944], [74.7303343, 16.7205495], [74.7302377, 16.7195117], [74.7276413, 16.7196041], [74.7275233, 16.7203029], [74.7271478, 16.7202618], [74.7271693, 16.719563], [74.7273624, 16.7171483], [74.6914744, 16.7164393], [74.6913457, 16.7172408], [74.6923971, 16.7187821], [74.6963024, 16.7236731], [74.6977401, 16.7265707], [74.6999502, 16.7304134], [74.7000789, 16.7315025], [74.699564, 16.7332287], [74.6984482, 16.7349753], [74.6957445, 16.7366809], [74.6891784, 16.7396604], [74.6848655, 16.7409344], [74.6795869, 16.7423933], [74.6751237, 16.7447563], [74.6703601, 16.7464207], [74.6674847, 16.747633], [74.6644592, 16.7480645], [74.6585798, 16.749359], [74.6567559, 16.7496878], [74.6524215, 16.7502836], [74.6494174, 16.7508589], [74.6472072, 16.751537], [74.6444821, 16.7531191], [74.6430874, 16.756571], [74.6431947, 16.7591393], [74.6430015, 16.7612144], [74.6428084, 16.7705421], [74.6425295, 16.7722062], [74.641006, 16.77461], [74.634397, 16.7797871], [74.6332383, 16.7813485], [74.6319937, 16.7837932], [74.6309852, 16.7855188], [74.6289682, 16.7875321], [74.6204281, 16.7905314], [74.6176386, 16.7921543], [74.6151924, 16.7933663], [74.6117592, 16.7953589], [74.607532, 16.7977418], [74.6044421, 16.7994468], [74.6009874, 16.8004533], [74.5976615, 16.801275], [74.5917821, 16.8018502], [74.5873403, 16.8018296], [74.5837998, 16.8013161], [74.5739722, 16.8024459], [74.5655823, 16.8044384], [74.561398, 16.8057325], [74.5597243, 16.806739], [74.5589089, 16.807992], [74.55863, 16.8094504], [74.5583296, 16.810991], [74.5582223, 16.8126342], [74.5583939, 16.8140515], [74.5584583, 16.8161671], [74.5578146, 16.8187757], [74.5559692, 16.8232944], [74.5550465, 16.8244241], [74.553802, 16.8254921], [74.5519781, 16.8269093], [74.5501327, 16.8283676], [74.5478368, 16.8302571], [74.5463133, 16.8321261], [74.543674, 16.8362132], [74.542644, 16.8377946], [74.5406914, 16.8400127], [74.5379019, 16.842395], [74.5351338, 16.8453729], [74.5340395, 16.8460404], [74.5333421, 16.8460404], [74.5326018, 16.8460917], [74.5316791, 16.8459685], [74.5299947, 16.8456604], [74.5290184, 16.8456707], [74.5282245, 16.8458761], [74.5270014, 16.8462457], [74.526304, 16.8466051], [74.5253169, 16.8476833], [74.5235467, 16.8499012], [74.5231283, 16.8504455], [74.5226776, 16.851041], [74.5216906, 16.851616], [74.520843, 16.8519651], [74.5201456, 16.8522321], [74.5194375, 16.8525094], [74.5185363, 16.8526634], [74.5185149, 16.852879], [74.5181823, 16.8533616], [74.5178175, 16.8538647], [74.5178711, 16.85445], [74.5180321, 16.855292], [74.518193, 16.8561237], [74.518193, 16.8566679], [74.5181501, 16.8575098], [74.5181179, 16.8582799], [74.5177638, 16.8587522], [74.5169163, 16.8589473], [74.5161223, 16.858783], [74.5147705, 16.8573456], [74.5136762, 16.8549429], [74.5130324, 16.8524785], [74.5130861, 16.8511745], [74.5131612, 16.8492441], [74.5133757, 16.8464511], [74.5134187, 16.8455475], [74.5135903, 16.8442536], [74.5142662, 16.8429187], [74.5146739, 16.8422307], [74.5145988, 16.8414195], [74.5144701, 16.8410396], [74.5139336, 16.8405569], [74.5133328, 16.8401565], [74.5122599, 16.8396225], [74.5105326, 16.8389242], [74.5086872, 16.8377536], [74.5065844, 16.8362543], [74.5041919, 16.835176], [74.5027006, 16.8343956], [74.5021534, 16.8337281], [74.5020139, 16.8328655], [74.5019281, 16.8319002], [74.5018744, 16.8312122], [74.5016813, 16.8306063], [74.5011985, 16.8301031], [74.5003724, 16.8298566], [74.4992244, 16.8298053], [74.4979799, 16.830216], [74.4963491, 16.8324137], [74.4959521, 16.8335946], [74.4955015, 16.835977], [74.4949007, 16.8388112], [74.4939136, 16.8425491], [74.4937956, 16.8468721], [74.4941497, 16.8481351], [74.4947076, 16.8495521], [74.4960487, 16.8518727], [74.4963491, 16.8531665], [74.4965744, 16.8544397], [74.4957697, 16.8573148], [74.4951367, 16.8580951], [74.4939244, 16.8589371], [74.4924223, 16.8598612], [74.4896006, 16.8598304], [74.4888067, 16.8597277], [74.4879913, 16.8596455], [74.4870686, 16.8596969], [74.4863605, 16.8602308], [74.485631, 16.8607955], [74.4850409, 16.8621406], [74.4841289, 16.8638963], [74.4837963, 16.864307], [74.483335, 16.8647485], [74.4824874, 16.8655288], [74.4799018, 16.8670484], [74.4775414, 16.8676644], [74.4759428, 16.8681778], [74.4743335, 16.8686193], [74.4724023, 16.8690813], [74.4713187, 16.8689478], [74.4703424, 16.8686912], [74.4694841, 16.8682599], [74.4684434, 16.8674077], [74.4676816, 16.8659087], [74.4671774, 16.8635677], [74.4671881, 16.8620584], [74.4662762, 16.8602103], [74.463209, 16.8569737], [74.4613598, 16.855164], [74.4601178, 16.853187], [74.458251, 16.8522116], [74.4570386, 16.8520781], [74.4559657, 16.8520268], [74.4551504, 16.8522732], [74.4540989, 16.8527661], [74.4529402, 16.8532076], [74.4513845, 16.8532589], [74.4486916, 16.8524272], [74.4473612, 16.851616], [74.4461059, 16.8511848], [74.4446146, 16.8509486], [74.4434345, 16.8508973], [74.4417071, 16.8510718], [74.439894, 16.8511232], [74.4386816, 16.8511026], [74.4373834, 16.8508973], [74.4361496, 16.8503838], [74.434905, 16.8492235], [74.4341326, 16.8483713], [74.433682, 16.8480324], [74.4328666, 16.8477346], [74.4319653, 16.8477757], [74.4309997, 16.8478271], [74.4301307, 16.8477962], [74.4295084, 16.8475293], [74.4290793, 16.8469953], [74.4277382, 16.8459069], [74.4252491, 16.8444693], [74.4240045, 16.8440688], [74.4229638, 16.8436683], [74.4217944, 16.8435656], [74.4197774, 16.843617], [74.4181144, 16.8436786], [74.4173634, 16.8437813], [74.4160867, 16.8438942], [74.4148099, 16.844038], [74.4139516, 16.8444282], [74.4124603, 16.8450443], [74.4102502, 16.845568], [74.4091129, 16.8461944], [74.4069135, 16.8475909], [74.4054437, 16.8497883], [74.4048321, 16.8505173], [74.4045424, 16.8510924], [74.4045532, 16.8515236], [74.404639, 16.852037], [74.4053686, 16.8533103], [74.4071281, 16.856021], [74.4076431, 16.8576331], [74.4082653, 16.8591321], [74.4094026, 16.8611857], [74.4100141, 16.8618017], [74.4105935, 16.8622535], [74.4112158, 16.8624691], [74.4122672, 16.8629004], [74.4130182, 16.8634035], [74.4139623, 16.8644508], [74.414134, 16.8659703], [74.4141769, 16.8671613], [74.4146275, 16.8677774], [74.4152927, 16.8685782], [74.4154215, 16.8692148], [74.4155717, 16.869913], [74.4154, 16.8712887], [74.4149065, 16.8741686], [74.4148368, 16.8746512], [74.4148636, 16.87499], [74.4149226, 16.8752928], [74.4150943, 16.8756881], [74.415518, 16.8762117], [74.415561, 16.8764427], [74.4156039, 16.8768739], [74.4155717, 16.8772743], [74.4155073, 16.8775567], [74.4154054, 16.8777877], [74.4152713, 16.8780495], [74.4150352, 16.8783523], [74.4146651, 16.8786603], [74.4142681, 16.8789375], [74.4136995, 16.8791531], [74.4130992, 16.8792184], [74.4116552, 16.8791968], [74.4095529, 16.8783858], [74.4074136, 16.8767572], [74.4052026, 16.8758936], [74.403172, 16.8764765], [74.4020665, 16.8781821], [74.4015927, 16.8794775], [74.4025854, 16.8805786], [74.4032172, 16.8815717], [74.4028336, 16.8827591], [74.4020045, 16.8829264]]]}}]}