{"type": "FeatureCollection", "features": [{"type": "Feature", "properties": {"id": "ankali", "name": "Ankali", "area_km2": 36.82, "approximate": true}, "geometry": {"type": "Polygon", "coordinates": [[[74.53784680919857, 16.844007624051514], [74.59608442213806, 16.86199601768299], [74.61764176429116, 16.842921102076268], [74.6018068371715, 16.80021456960143], [74.5976615, 16.801274999999997], [74.5917821, 16.801850199999997], [74.5837998, 16.8013161], [74.5739722, 16.802445899999995], [74.56558230000002, 16.8044384], [74.561398, 16.805732500000005], [74.5597243, 16.806739], [74.5589089, 16.807992], [74.5583296, 16.810991], [74.5584583, 16.816167100000005], [74.5559692, 16.823294400000005], [74.5478368, 16.8302571], [74.542644, 16.8377946], [74.53716493627098, 16.84318783279076], [74.53784680919857, 16.844007624051514]]]}}, {"type": "Feature", "properties": {"id": "arag", "name": "Arag", "area_km2": 46.9, "approximate": true}, "geometry": {"type": "Polygon", "coordinates": [[[74.7747628995765, 16.811479326206996], [74.80072298618033, 16.824648652433446], [74.82491483867214, 16.819479997628704], [74.84432640881597, 16.761036623685946], [74.7999771, 16.7534839], [74.78270883973082, 16.75138606487935], [74.77007256176289, 16.77142731921234], [74.7747628995765, 16.811479326206996]]]}}, {"type": "Feature", "properties": {"id": "bedag", "name": "Bedag", "area_km2": 26.02, "approximate": true}, "geometry": {"type": "Polygon", "coordinates": [[[74.72305477771106, 16.820072630250664], [74.72541793758612, 16.824507710532654], [74.75714884765576, 16.82267082917234], [74.7747628995765, 16.811479326206996], [74.77007256176289, 16.77142731921234], [74.73167524694968, 16.774340214956982], [74.72305477771106, 16.820072630250664]]]}}, {"type": "Feature", "properties": {"id": "belanki", "name": "Belanki", "area_km2": 26.99, "approximate": true}, "geometry": {"type": "Polygon", "coordinates": [[[74.84836784174297, 16.837261658018125], [74.84628626689374, 16.84947370798897], [74.88042252112376, 16.88729880229603], [74.90407037440707, 16.85742815576367], [74.9098414, 16.8290936], [74.91007313761338, 16.82501370748626], [74.84836784174297, 16.837261658018125]]]}}, {"type": "Feature", "properties": {"id": "bhose", "name": "Bhose", "area_km2": 27.72, "approximate": true}, "geometry": {"type": "MultiPolygon", "coordinates": [[[[74.75110769557735, 16.92298521573747], [74.71275761822545, 16.932213078099196], [74.70488249669889, 16.96719591979741], [74.73168284399382, 16.984904648376038], [74.7329092, 16.980252299999997], [74.733982, 16.978979999999996], [74.74037640000002, 16.978528499999996], [74.7520494, 16.976435200000004], [74.7566843, 16.969375200000005], [74.7587871, 16.967158699999995], [74.7619199, 16.9652705], [74.762907, 16.961453], [74.7640657, 16.959852099999996], [74.7641086, 16.958333299999996], [74.7589159, 16.9559114], [74.7576713, 16.954556800000002], [74.7550106, 16.944704499999997], [74.7533369, 16.941871799999998], [74.7524356, 16.9387518], [74.7480583, 16.9309104], [74.74724290000002, 16.9282829], [74.7480154, 16.9275439], [74.7547160733648, 16.92685011875909], [74.75110769557735, 16.92298521573747]]], [[[74.74750206911803, 16.99535423482975], [74.7475433, 16.9912519], [74.74617, 16.990759399999998], [74.74175119087474, 16.991555695660814], [74.74750206911803, 16.99535423482975]]]]}}, {"type": "Feature", "properties": {"id": "bisur", "name": "Bisur", "area_km2": 14.06, "approximate": true}, "geometry": {"type": "Polygon", "coordinates": [[[74.57411884149425, 16.93445436143226], [74.60076676933261, 16.941042712778057], [74.598783088189, 16.872413204298876], [74.59713020672113, 16.869470141911556], [74.57205121701769, 16.92310002181203], [74.57411884149425, 16.93445436143226]]]}}, {"type": "Feature", "properties": {"id": "bolwad", "name": "Bolwad", "area_km2": 12.69, "approximate": true}, "geometry": {"type": "Polygon", "coordinates": [[[74.66008649954205, 16.809024656126116], [74.72004085209652, 16.832884076420605], [74.72541793758612, 16.824507710532654], [74.72305477771106, 16.820072630250664], [74.69484679349107, 16.799601989106264], [74.6803527818865, 16.798335552240793], [74.66427443304775, 16.801358710793153], [74.66008649954205, 16.809024656126116]]]}}, {"type": "Feature", "properties": {"id": "chabuksarwadi", "name": "Chabuksarwadi", "area_km2": 9.61, "approximate": true}, "geometry": {"type": "Polygon", "coordinates": [[[74.92897648143281, 16.905722544339056], [74.959116, 16.905002800000002], [74.9601888, 16.9080412], [74.9620933, 16.910564900000004], [74.9631325, 16.908135099999996], [74.9628692, 16.8794189], [74.9383386, 16.8780808], [74.93766439576738, 16.87628304321238], [74.92897648143281, 16.905722544339056]]]}}, {"type": "Feature", "properties": {"id": "dongerwadi", "name": "Dongerwadi", "area_km2": 15.98, "approximate": true}, "geometry": {"type": "Polygon", "coordinates": [[[74.83566769104596, 16.866850592164305], [74.82654684954105, 16.869484329691563], [74.80661260556033, 16.88809749930667], [74.81333585306511, 16.918416957009203], [74.8141479, 16.9158015], [74.8214006, 16.909847899999995], [74.8285675, 16.908903500000005], [74.8291683, 16.907548500000004], [74.830842, 16.906111399999997], [74.8330307, 16.905249100000002], [74.8353481, 16.905372299999996], [74.8395538, 16.907096899999996], [74.8462915, 16.906563100000003], [74.8506259, 16.907425299999996], [74.8514843, 16.906398799999998], [74.8520422, 16.904427899999998], [74.8512268, 16.9005271], [74.85364505259757, 16.90013778855499], [74.83566769104596, 16.866850592164305]]]}}, {"type": "Feature", "properties": {"id": "dudhgaon", "name": "Dudhgaon", "area_km2": 26.39, "approximate": true}, "geometry": {"type": "Polygon", "coordinates": [[[74.44159834558549, 16.851074883557356], [74.4373834, 16.850897299999996], [74.4361496, 16.8503838], [74.433682, 16.848032400000005], [74.4301307, 16.8477962], [74.4252491, 16.8444693], [74.4217944, 16.843565599999998], [74.4148099, 16.844038], [74.4102502, 16.845568000000004], [74.4069135, 16.8475909], [74.4048321, 16.8505173], [74.404639, 16.852037], [74.4071281, 16.856020999999995], [74.4094026, 16.8611857], [74.4130182, 16.863403499999997], [74.4139623, 16.8644508], [74.4141769, 16.8671613], [74.4152927, 16.868578200000005], [74.4155717, 16.869912999999997], [74.41483680000002, 16.8746512], [74.41560390000001, 16.876873899999996], [74.4150352, 16.8783523], [74.4130992, 16.879218399999996], [74.4116552, 16.879196799999995], [74.4095529, 16.878385799999993], [74.4074136, 16.8767572], [74.4052026, 16.8758936], [74.403172, 16.876476499999995], [74.4020665, 16.878182100000004], [74.4015927, 16.879477499999997], [74.4032172, 16.881571699999995], [74.4028336, 16.8827591], [74.4020045, 16.882926399999995], [74.4037399, 16.887906599999994], [74.4027584, 16.889036800000003], [74.4035623, 16.9020068], [74.4022125, 16.9088383], [74.4105353, 16.907909199999995], [74.4264297, 16.909245699999996], [74.4313549, 16.9103022], [74.44364677040734, 16.91023693028069], [74.44159834558549, 16.851074883557356]]]}}, {"type": "Feature", "properties": {"id": "erandoli", "name": "Erandoli", "area_km2": 22.68, "approximate": true}, "geometry": {"type": "Polygon", "coordinates": [[[74.75714884765576, 16.82267082917234], [74.7595530434541, 16.86180421576463], [74.77410605676536, 16.872678719653045], [74.78396602115644, 16.870750924677345], [74.79780555147842, 16.84556978930844], [74.80072298618033, 16.824648652433446], [74.7747628995765, 16.811479326206996], [74.75714884765576, 16.82267082917234]]]}}, {"type": "Feature", "properties": {"id": "gundewadi", "name": "Gundewadi", "area_km2": 18.89, "approximate": true}, "geometry": {"type": "Polygon", "coordinates": [[[74.72540604676436, 16.891417409397604], [74.75031066002398, 16.919548165906107], [74.77410605676536, 16.872678719653045], [74.7595530434541, 16.86180421576463], [74.73537160640157, 16.866156564506156], [74.72540604676436, 16.891417409397604]]]}}, {"type": "Feature", "properties": {"id": "kadamwadi", "name": "Kadamwadi", "area_km2": 13.61, "approximate": true}, "geometry": {"type": "Polygon", "coordinates": [[[74.83566769104596, 16.866850592164305], [74.85364505259757, 16.90013778855499], [74.8601532, 16.8990899], [74.8660326, 16.8972832], [74.8692083, 16.896831499999998], [74.87375730000001, 16.896954700000002], [74.87678544450031, 16.898193087950254], [74.88042252112376, 16.88729880229603], [74.84628626689374, 16.84947370798897], [74.83566769104596, 16.866850592164305]]]}}, {"type": "Feature", "properties": {"id": "kalambi", "name": "Kalambi", "area_km2": 9.39, "approximate": true}, "geometry": {"type": "Polygon", "coordinates": [[[74.67478807399252, 16.89585035765703], [74.69100394389345, 16.918039027402408], [74.7114620977962, 16.889284761472407], [74.69132552665943, 16.874514569284408], [74.67478807399252, 16.89585035765703]]]}}, {"type": "Feature", "properties": {"id": "kanawadi", "name": "Kanawadi", "area_km2": 32.64, "approximate": true}, "geometry": {"type": "Polygon", "coordinates": [[[74.59713020672113, 16.869470141911556], [74.598783088189, 16.872413204298876], [74.63926419060007, 16.914320018112505], [74.65570732551232, 16.90660796264444], [74.6635374415387, 16.898288006780888], [74.63530587649868, 16.84003852876795], [74.61764176429116, 16.842921102076268], [74.59608442213806, 16.86199601768299], [74.59612726227223, 16.86580214260775], [74.59713020672113, 16.869470141911556]]]}}, {"type": "Feature", "properties": {"id": "kanchanpur", "name": "Kanchanpur", "area_km2": 9.07, "approximate": true}, "geometry": {"type": "MultiPolygon", "coordinates": [[[[74.63945099433933, 16.953621189511537], [74.6449327, 16.9369865], [74.6506834, 16.937150699999997], [74.6520996, 16.9367402], [74.6542024, 16.930212499999996], [74.6599102, 16.936781199999995], [74.6617555, 16.936288600000005], [74.6623563, 16.934810599999995], [74.6617555, 16.9292682], [74.6622705, 16.925408899999997], [74.6640729, 16.9249984], [74.6773338, 16.924916299999996], [74.68088380768305, 16.925326817973197], [74.65570732551232, 16.90660796264444], [74.63926419060007, 16.914320018112505], [74.63945099433933, 16.953621189511537]]], [[[74.68277912557787, 16.933129782191546], [74.68613113066037, 16.92922738036693], [74.68132664623778, 16.92565601040225], [74.6828699, 16.9315673], [74.68277912557787, 16.933129782191546]]]]}}, {"type": "Feature", "properties": {"id": "karnal", "name": "Karnal", "area_km2": 13.27, "approximate": true}, "geometry": {"type": "Polygon", "coordinates": [[[74.59612726227223, 16.86580214260775], [74.5433103148152, 16.91006026572144], [74.5433963097146, 16.915190635041913], [74.57205121701769, 16.92310002181203], [74.59713020672113, 16.869470141911556], [74.59612726227223, 16.86580214260775]]]}}, {"type": "Feature", "properties": {"id": "karoli", "name": "Karoli", "area_km2": 12.8, "approximate": true}, "geometry": {"type": "Polygon", "coordinates": [[[74.74175119087474, 16.991555695660814], [74.7382736, 16.9921138], [74.7328233, 16.987394], [74.73168284399382, 16.984904648376038], [74.70488249669889, 16.96719591979741], [74.68348646356387, 16.970856152893102], [74.6915388, 16.975491099999996], [74.691925, 16.978282200000002], [74.6904659, 16.986819300000004], [74.6907234, 16.9906363], [74.6929979, 16.992975699999995], [74.6981048, 16.993222], [74.7126102, 16.9977365], [74.7171163, 16.9984342], [74.7328233, 16.9978596], [74.7371578, 16.9983931], [74.7440671, 17.0008555], [74.7501611, 17.0008966], [74.74750206911803, 16.99535423482975], [74.74175119087474, 16.991555695660814]]]}}, {"type": "Feature", "properties": {"id": "kasbe-digraj", "name": "Kasbe Digraj", "area_km2": 13.3, "approximate": true}, "geometry": {"type": "Polygon", "coordinates": [[[74.489678835224, 16.895413195127908], [74.4857779985415, 16.902282986544282], [74.50620416961169, 16.933805657826625], [74.5077323, 16.9327989], [74.5098352, 16.932265199999996], [74.5102644, 16.934543799999997], [74.51124018991167, 16.936286975262302], [74.52493124763241, 16.894399663574088], [74.51734758704306, 16.88337131313361], [74.489678835224, 16.895413195127908]]]}}, {"type": "Feature", "properties": {"id": "kavalapur", "name": "Kavalapur", "area_km2": 27.56, "approximate": true}, "geometry": {"type": "Polygon", "coordinates": [[[74.60076676933261, 16.941042712778057], [74.61061080290698, 16.951945093976395], [74.6211147, 16.9520527], [74.6221447, 16.952832599999994], [74.6227455, 16.958046], [74.6240329, 16.9587028], [74.6294832, 16.9580049], [74.632616, 16.959975299999996], [74.6347618, 16.9593596], [74.63871, 16.9552546], [74.63945099433933, 16.953621189511537], [74.63926419060007, 16.914320018112505], [74.598783088189, 16.872413204298876], [74.60076676933261, 16.941042712778057]]]}}, {"type": "Feature", "properties": {"id": "kavathe-piran", "name": "Kavathe Piran", "area_km2": 23.48, "approximate": true}, "geometry": {"type": "Polygon", "coordinates": [[[74.44364677040734, 16.91023693028069], [74.4529343, 16.909633700000004], [74.46166265536078, 16.910122808739867], [74.4857779985415, 16.902282986544282], [74.489678835224, 16.895413195127908], [74.47548025616635, 16.868304697125303], [74.4713187, 16.868947799999997], [74.4684434, 16.8674077], [74.4676816, 16.865908699999995], [74.4671881, 16.862058399999995], [74.4662762, 16.860210299999995], [74.4613598, 16.855163999999995], [74.4601178, 16.853187], [74.458251, 16.852211599999993], [74.4559657, 16.8520268], [74.4529402, 16.8532076], [74.4513845, 16.853258899999997], [74.4461059, 16.8511848], [74.44159834558549, 16.851074883557356], [74.44364677040734, 16.91023693028069]]]}}, {"type": "Feature", "properties": {"id": "khanderajuri", "name": "Khanderajuri", "area_km2": 28.79, "approximate": true}, "geometry": {"type": "Polygon", "coordinates": [[[74.75031066002398, 16.919548165906107], [74.75110769557735, 16.92298521573747], [74.7547160733648, 16.92685011875909], [74.7577142, 16.927626000000004], [74.7617912, 16.927708099999997], [74.763894, 16.9260658], [74.7704601, 16.925491], [74.7733354, 16.925942699999997], [74.7764253, 16.927379599999995], [74.7790432, 16.9274617], [74.7805023, 16.926681699999996], [74.7824335, 16.926599599999996], [74.7827768, 16.9279544], [74.7847938, 16.9275439], [74.7941494, 16.922781299999997], [74.7974538, 16.922699200000004], [74.7987413, 16.9254089], [74.8007154, 16.9252858], [74.8032474, 16.9238077], [74.804492, 16.924423599999997], [74.8062944, 16.926722699999996], [74.8099422, 16.929104], [74.8116588, 16.929104000000002], [74.8117017, 16.92352029999999], [74.8132896, 16.92076949999999], [74.81333585306511, 16.918416957009203], [74.80661260556033, 16.88809749930667], [74.78396602115644, 16.870750924677345], [74.77410605676536, 16.872678719653045], [74.75031066002398, 16.919548165906107]]]}}, {"type": "Feature", "properties": {"id": "khotwadi", "name": "Khotwadi", "area_km2": 14.21, "approximate": true}, "geometry": {"type": "Polygon", "coordinates": [[[74.56388250730467, 16.97467736458226], [74.5664835, 16.9747523], [74.56970210000001, 16.9758605], [74.5751094, 16.976024700000004], [74.5823621, 16.977912799999995], [74.5847654, 16.977748599999998], [74.5862674, 16.976599399999998], [74.5860099, 16.974629199999995], [74.586482, 16.9728642], [74.588499, 16.9706477], [74.5885419, 16.95755339999999], [74.5893144, 16.955993499999998], [74.589529, 16.9511085], [74.6017599, 16.9508622], [74.6069097, 16.951970599999996], [74.61061080290698, 16.951945093976395], [74.60076676933261, 16.941042712778057], [74.57411884149425, 16.93445436143226], [74.56013893885533, 16.946388946773837], [74.56388250730467, 16.97467736458226]]]}}, {"type": "Feature", "properties": {"id": "linganur", "name": "Linganur", "area_km2": 56.97, "approximate": true}, "geometry": {"type": "Polygon", "coordinates": [[[74.82491483867214, 16.819479997628704], [74.84836784174297, 16.837261658018125], [74.91007313761338, 16.82501370748626], [74.9120304, 16.788301600000004], [74.9222821, 16.771484999999995], [74.85042000000001, 16.7717688], [74.8453246, 16.761206500000004], [74.84432640881597, 16.761036623685946], [74.82491483867214, 16.819479997628704]]]}}, {"type": "Feature", "properties": {"id": "malgaon", "name": "Malgaon", "area_km2": 18.97, "approximate": true}, "geometry": {"type": "Polygon", "coordinates": [[[74.7114620977962, 16.889284761472407], [74.72540604676436, 16.891417409397604], [74.73537160640157, 16.866156564506156], [74.7165170086856, 16.839471485657246], [74.68506166733476, 16.855674479964524], [74.69132552665943, 16.874514569284408], [74.7114620977962, 16.889284761472407]]]}}, {"type": "Feature", "properties": {"id": "mallewadi", "name": "Mallewadi", "area_km2": 16.63, "approximate": true}, "geometry": {"type": "Polygon", "coordinates": [[[74.7165170086856, 16.839471485657246], [74.73537160640157, 16.866156564506156], [74.7595530434541, 16.86180421576463], [74.75714884765576, 16.82267082917234], [74.72541793758612, 16.824507710532654], [74.72004085209652, 16.832884076420605], [74.7165170086856, 16.839471485657246]]]}}, {"type": "Feature", "properties": {"id": "manmodi", "name": "Manmodi", "area_km2": 6.84, "approximate": true}, "geometry": {"type": "Polygon", "coordinates": [[[74.65570732551232, 16.90660796264444], [74.68613113066037, 16.92922738036693], [74.69089038779084, 16.926168082617878], [74.69100394389345, 16.918039027402408], [74.67478807399252, 16.89585035765703], [74.6635374415387, 16.898288006780888], [74.65570732551232, 16.90660796264444]]]}}, {"type": "Feature", "properties": {"id": "mhaisal", "name": "Mhaisal", "area_km2": 16.91, "approximate": true}, "geometry": {"type": "Polygon", "coordinates": [[[74.69824770233066, 16.762324319041525], [74.71794072604159, 16.7655439188924], [74.72377253531023, 16.717077659583616], [74.6914744, 16.716439300000005], [74.6913457, 16.717240799999992], [74.6963024, 16.723673099999996], [74.6999502, 16.7304134], [74.699564, 16.7332287], [74.6984482, 16.734975300000002], [74.6957445, 16.736680899999996], [74.6891784, 16.7396604], [74.6795869, 16.7423933], [74.67317590111094, 16.74543687709353], [74.69824770233066, 16.762324319041525]]]}}, {"type": "Feature", "properties": {"id": "mirajghat", "name": "Mirajghat", "area_km2": 34.03, "approximate": true}, "geometry": {"type": "Polygon", "coordinates": [[[74.63530587649868, 16.84003852876795], [74.64195158460274, 16.837722016379622], [74.66008649954205, 16.809024656126116], [74.66427443304775, 16.801358710793153], [74.64879229494787, 16.75105068814851], [74.6444821, 16.7531191], [74.6430874, 16.756570999999997], [74.6425295, 16.7722062], [74.641006, 16.77461], [74.634397, 16.7797871], [74.6309852, 16.78551879999999], [74.6289682, 16.787532100000004], [74.6204281, 16.790531399999995], [74.6044421, 16.7994468], [74.6018068371715, 16.80021456960143], [74.61764176429116, 16.842921102076268], [74.63530587649868, 16.84003852876795]]]}}, {"type": "Feature", "properties": {"id": "mohan-nagar", "name": "Mohan Nagar", "area_km2": 19.87, "approximate": true}, "geometry": {"type": "Polygon", "coordinates": [[[74.66427443304775, 16.801358710793153], [74.6803527818865, 16.798335552240793], [74.69824770233066, 16.762324319041525], [74.67317590111094, 16.74543687709353], [74.6674847, 16.747633], [74.64879229494787, 16.75105068814851], [74.66427443304775, 16.801358710793153]]]}}, {"type": "Feature", "properties": {"id": "mouje-digraj", "name": "Mouje Digraj", "area_km2": 9.97, "approximate": true}, "geometry": {"type": "Polygon", "coordinates": [[[74.53486969769918, 16.933365470805295], [74.5433963097146, 16.915190635041913], [74.5433103148152, 16.91006026572144], [74.52493124763241, 16.894399663574088], [74.51124018991167, 16.936286975262302], [74.5132684, 16.939408599999997], [74.51400974403192, 16.941832256581815], [74.53486969769918, 16.933365470805295]]]}}, {"type": "Feature", "properties": {"id": "nagargojewadi", "name": "Nagargojewadi", "area_km2": 11.15, "approximate": true}, "geometry": {"type": "Polygon", "coordinates": [[[74.72305477771106, 16.820072630250664], [74.73167524694968, 16.774340214956982], [74.72146345190477, 16.76980187050352], [74.69484679349107, 16.799601989106264], [74.72305477771106, 16.820072630250664]]]}}, {"type": "Feature", "properties": {"id": "nandre", "name": "Nandre", "area_km2": 12.75, "approximate": true}, "geometry": {"type": "Polygon", "coordinates": [[[74.56013893885533, 16.946388946773837], [74.53486969769918, 16.933365470805295], [74.51400974403192, 16.941832256581815], [74.5173239, 16.9470239], [74.51981300000001, 16.948932799999998], [74.52389, 16.949076499999997], [74.5267439, 16.947578100000005], [74.5285678, 16.948358099999997], [74.5306921, 16.952093700000002], [74.5300698, 16.9565066], [74.531722, 16.959544299999997], [74.5313358, 16.9624382], [74.5325374, 16.9643674], [74.5341682, 16.965824600000005], [74.5360565, 16.9665635], [74.541378, 16.9655784], [74.5473647, 16.967979600000003], [74.5578146, 16.974998599999992], [74.5589733, 16.977132899999997], [74.5605182, 16.975368], [74.5625782, 16.974464999999995], [74.56388250730467, 16.97467736458226], [74.56013893885533, 16.946388946773837]]]}}, {"type": "Feature", "properties": {"id": "narwad", "name": "Narwad", "area_km2": 26.8, "approximate": true}, "geometry": {"type": "Polygon", "coordinates": [[[74.71794072604159, 16.7655439188924], [74.72146345190477, 16.76980187050352], [74.73167524694968, 16.774340214956982], [74.77007256176289, 16.77142731921234], [74.78270883973082, 16.75138606487935], [74.7744392, 16.7503809], [74.7404837, 16.7245157], [74.7372865, 16.723714199999996], [74.7338104, 16.720837199999995], [74.7323513, 16.718494399999997], [74.7303343, 16.7205495], [74.7302377, 16.719511699999998], [74.7276413, 16.719604100000005], [74.7275233, 16.720302899999997], [74.7271478, 16.720261799999996], [74.7273624, 16.717148299999995], [74.72377253531023, 16.717077659583616], [74.71794072604159, 16.7655439188924]]]}}, {"type": "Feature", "properties": {"id": "navraswadi", "name": "Navraswadi", "area_km2": 8.93, "approximate": true}, "geometry": {"type": "Polygon", "coordinates": [[[74.53486969769918, 16.933365470805295], [74.56013893885533, 16.946388946773837], [74.57411884149425, 16.93445436143226], [74.57205121701769, 16.92310002181203], [74.5433963097146, 16.915190635041913], [74.53486969769918, 16.933365470805295]]]}}, {"type": "Feature", "properties": {"id": "padmale", "name": "Padmale", "area_km2": 33.02, "approximate": true}, "geometry": {"type": "Polygon", "coordinates": [[[74.52493124763241, 16.894399663574088], [74.5433103148152, 16.91006026572144], [74.59612726227223, 16.86580214260775], [74.59608442213806, 16.86199601768299], [74.53784680919857, 16.844007624051514], [74.51734758704306, 16.88337131313361], [74.52493124763241, 16.894399663574088]]]}}, {"type": "Feature", "properties": {"id": "patgaon", "name": "Patgaon", "area_km2": 7.5, "approximate": true}, "geometry": {"type": "Polygon", "coordinates": [[[74.68301285058591, 16.93296462842636], [74.703812243566, 16.967116384421292], [74.70488249669889, 16.96719591979741], [74.71275761822545, 16.932213078099196], [74.69089038779084, 16.926168082617878], [74.68613113066037, 16.92922738036693], [74.68301285058591, 16.93296462842636]]]}}, {"type": "Feature", "properties": {"id": "payapachiwadi", "name": "Payapachiwadi", "area_km2": 10.73, "approximate": true}, "geometry": {"type": "Polygon", "coordinates": [[[74.78396602115644, 16.870750924677345], [74.80661260556033, 16.88809749930667], [74.82654684954105, 16.869484329691563], [74.79780555147842, 16.84556978930844], [74.78396602115644, 16.870750924677345]]]}}, {"type": "Feature", "properties": {"id": "salgare", "name": "Salgare", "area_km2": 22.27, "approximate": true}, "geometry": {"type": "Polygon", "coordinates": [[[74.93766439576738, 16.87628304321238], [74.9356625, 16.870944799999997], [74.90305580000002, 16.86240859999999], [74.90407037440707, 16.85742815576367], [74.88042252112376, 16.88729880229603], [74.87678544450031, 16.898193087950254], [74.87916470000002, 16.8997469], [74.885602, 16.902251699999997], [74.8907089, 16.9017179], [74.9006652, 16.904510099999996], [74.92897648143281, 16.905722544339056], [74.93766439576738, 16.87628304321238]]]}}, {"type": "Feature", "properties": {"id": "samdoli", "name": "Samdoli", "area_km2": 21.93, "approximate": true}, "geometry": {"type": "Polygon", "coordinates": [[[74.489678835224, 16.895413195127908], [74.51734758704306, 16.88337131313361], [74.53784680919857, 16.844007624051514], [74.53716493627098, 16.84318783279076], [74.5340395, 16.8460404], [74.5290184, 16.8456707], [74.526304, 16.846605099999998], [74.5226776, 16.851041], [74.5185363, 16.8526634], [74.5178175, 16.8538647], [74.5181179, 16.8582799], [74.5177638, 16.8587522], [74.5161223, 16.858783], [74.51477050000001, 16.8573456], [74.5130324, 16.852478499999993], [74.5134187, 16.8455475], [74.5146739, 16.8422307], [74.5144701, 16.841039599999995], [74.5027006, 16.834395599999997], [74.5011985, 16.830103100000002], [74.4992244, 16.8298053], [74.4979799, 16.830215999999993], [74.4959521, 16.8335946], [74.4939136, 16.842549100000003], [74.4937956, 16.8468721], [74.4960487, 16.8518727], [74.4965744, 16.8544397], [74.4957697, 16.857314799999997], [74.4924223, 16.8598612], [74.4870686, 16.8596969], [74.485631, 16.8607955], [74.4841289, 16.8638963], [74.4824874, 16.865528799999996], [74.4799018, 16.867048399999998], [74.47548025616635, 16.868304697125303], [74.489678835224, 16.895413195127908]]]}}, {"type": "Feature", "properties": {"id": "shipur", "name": "Shipur", "area_km2": 19.82, "approximate": true}, "geometry": {"type": "Polygon", "coordinates": [[[74.79780555147842, 16.84556978930844], [74.82654684954105, 16.869484329691563], [74.83566769104596, 16.866850592164305], [74.84628626689374, 16.84947370798897], [74.84836784174297, 16.837261658018125], [74.82491483867214, 16.819479997628704], [74.80072298618033, 16.824648652433446], [74.79780555147842, 16.84556978930844]]]}}, {"type": "Feature", "properties": {"id": "siddhewadi", "name": "Siddhewadi", "area_km2": 18.85, "approximate": true}, "geometry": {"type": "Polygon", "coordinates": [[[74.69089038779084, 16.926168082617878], [74.71275761822545, 16.932213078099196], [74.75110769557735, 16.92298521573747], [74.75031066002398, 16.919548165906107], [74.72540604676436, 16.891417409397604], [74.7114620977962, 16.889284761472407], [74.69100394389345, 16.918039027402408], [74.69089038779084, 16.926168082617878]]]}}, {"type": "Feature", "properties": {"id": "soni", "name": "Soni", "area_km2": 6.28, "approximate": true}, "geometry": {"type": "Polygon", "coordinates": [[[74.703812243566, 16.967116384421292], [74.68301285058591, 16.93296462842636], [74.6817541, 16.936822299999992], [74.6784496, 16.954433599999998], [74.6773338, 16.9571839], [74.6766042, 16.962520300000005], [74.6771621, 16.966789299999995], [74.6790933, 16.9684312], [74.68348646356387, 16.970856152893102], [74.703812243566, 16.967116384421292]]]}}, {"type": "Feature", "properties": {"id": "takali", "name": "Takali", "area_km2": 23.06, "approximate": true}, "geometry": {"type": "Polygon", "coordinates": [[[74.64195158460274, 16.837722016379622], [74.68506166733476, 16.855674479964524], [74.7165170086856, 16.839471485657246], [74.72004085209652, 16.832884076420605], [74.66008649954205, 16.809024656126116], [74.64195158460274, 16.837722016379622]]]}}, {"type": "Feature", "properties": {"id": "tanang", "name": "Tanang", "area_km2": 20.91, "approximate": true}, "geometry": {"type": "Polygon", "coordinates": [[[74.6635374415387, 16.898288006780888], [74.67478807399252, 16.89585035765703], [74.69132552665943, 16.874514569284408], [74.68506166733476, 16.855674479964524], [74.64195158460274, 16.837722016379622], [74.63530587649868, 16.84003852876795], [74.6635374415387, 16.898288006780888]]]}}, {"type": "Feature", "properties": {"id": "tung", "name": "Tung", "area_km2": 13.06, "approximate": true}, "geometry": {"type": "Polygon", "coordinates": [[[74.4857779985415, 16.902282986544282], [74.46166265536078, 16.910122808739867], [74.462246, 16.910150599999998], [74.4626024, 16.923765800000005], [74.4642601, 16.9265838], [74.4636633, 16.931976899999995], [74.4646123, 16.9345881], [74.4682859, 16.93699189999999], [74.4739753, 16.9387743], [74.4956731, 16.9375202], [74.5007801, 16.9365349], [74.50620416961169, 16.933805657826625], [74.4857779985415, 16.902282986544282]]]}}, {"type": "Feature", "properties": {"id": "vijay-nagar", "name": "Vijay Nagar", "area_km2": 8.89, "approximate": true}, "geometry": {"type": "Polygon", "coordinates": [[[74.69824770233066, 16.762324319041525], [74.6803527818865, 16.798335552240793], [74.69484679349107, 16.799601989106264], [74.72146345190477, 16.76980187050352], [74.71794072604159, 16.7655439188924], [74.69824770233066, 16.762324319041525]]]}}]}